NORAD_CAT_ID,OBJECT_NAME,OBJECT_TYPE,EPOCH,MEAN_MOTION,ECCENTRICITY,INCLINATION,RA_OF_ASC_NODE,ARG_OF_PERICENTER,MEAN_ANOMALY,BSTAR,MEAN_MOTION_DOT,MEAN_MOTION_DDOT,TLE_LINE0,TLE_LINE1,TLE_LINE2,SEMIMAJOR_AXIS,PERIOD,APOGEE,PERIGEE,DECAYED
51758.0,STARLINK-3458,PAYLOAD,2022-10-12 16:03:32,15.08840573,0.0001903,53.2167,133.7433,50.7468,309.3693,5.0424e-05,5.14e-06,0.0,0 STARLINK-3458,1 51758U 22016AW  22285.66912889  .00000514  00000-0  50424-4 0  9994,2 51758  53.2167 133.7433 0001903  50.7468 309.3693 15.08840573 37047,6917.879,95.438,541.06,538.427,0.0
51758.0,STARLINK-3458,PAYLOAD,2022-10-13 01:35:52,15.08824814,0.0001608,53.2184,131.9592,58.6982,301.4167,0.00010985,1.46e-05,0.0,0 STARLINK-3458,1 51758U 22016AW  22286.06657855  .00001460  00000-0  10985-3 0  9996,2 51758  53.2184 131.9592 0001608  58.6982 301.4167 15.08824814 37108,6917.927,95.439,540.904,538.679,0.0
51758.0,STARLINK-3458,PAYLOAD,2022-10-13 06:22:01,15.08855049,0.0001433,53.2184,131.067,49.5984,310.5133,-0.00029815,-5.032e-05,0.0,0 STARLINK-3458,1 51758U 22016AW  22286.26529017 -.00005032  00000-0 -29815-3 0  9999,2 51758  53.2184 131.0670 0001433  49.5984 310.5133 15.08855049 37134,6917.834,95.437,540.691,538.7080000000002,0.0
51758.0,STARLINK-3458,PAYLOAD,2022-10-13 20:40:30,15.08830472,0.0001247,53.2188,128.3897,49.9717,310.1384,7.2586e-05,8.67e-06,0.0,0 STARLINK-3458,1 51758U 22016AW  22286.86146101  .00000867  00000-0  72586-4 0  9997,2 51758  53.2188 128.3897 0001247  49.9717 310.1384 15.08830472 37226,6917.91,95.438,540.637,538.9119999999998,0.0
51758.0,STARLINK-3458,PAYLOAD,2022-10-14 06:12:47,15.08847897,0.0001714,53.2183,126.6066,49.5486,310.5656,0.00015292,2.147e-05,0.0,0 STARLINK-3458,1 51758U 22016AW  22287.25888853  .00002147  00000-0  15292-3 0  9991,2 51758  53.2183 126.6066 0001714  49.5486 310.5656 15.08847897 37289,6917.856,95.437,540.9069999999998,538.536,0.0
51758.0,STARLINK-3458,PAYLOAD,2022-10-14 15:45:07,15.088485,0.0002322,53.2169,124.8245,50.9078,309.2121,4.5943e-05,4.43e-06,0.0,0 STARLINK-3458,1 51758U 22016AW  22287.65633265  .00000443  00000-0  45943-4 0  9994,2 51758  53.2169 124.8245 0002322  50.9078 309.2121 15.08848500 37342,6917.854,95.437,541.326,538.113,0.0
51758.0,STARLINK-3458,PAYLOAD,2022-10-14 23:42:03,15.08842632,0.0001896999999999,53.2179,123.3363,50.1846,309.9313,-0.00011118,-2.057e-05,0.0,0 STARLINK-3458,1 51758U 22016AW  22287.98753917 -.00002057  00000-0 -11118-3 0  9998,2 51758  53.2179 123.3363 0001897  50.1846 309.9313 15.08842632 37394,6917.871999999999,95.437,541.05,538.425,0.0
51758.0,STARLINK-3458,PAYLOAD,2022-10-15 06:03:36,15.08834452,0.000185,53.2179,122.1468,50.7996,309.3161,5.3543e-05,5.64e-06,0.0,0 STARLINK-3458,1 51758U 22016AW  22288.25250078  .00000564  00000-0  53543-4 0  9997,2 51758  53.2179 122.1468 0001850  50.7996 309.3161 15.08834452 37439,6917.897,95.438,541.0419999999998,538.4830000000002,0.0
51758.0,STARLINK-3458,PAYLOAD,2022-10-15 17:11:17,15.08842796,0.0001891,53.2184,120.0654,52.1453,307.971,5.8278e-05,6.4e-06,0.0,0 STARLINK-3458,1 51758U 22016AW  22288.71617546  .00000640  00000-0  58278-4 0  9990,2 51758  53.2184 120.0654 0001891  52.1453 307.9710 15.08842796 37500,6917.871999999999,95.437,541.045,538.429,0.0
51758.0,STARLINK-3458,PAYLOAD,2022-10-16 01:08:13,15.08838878,0.0002407,53.2192,118.579,45.9717,314.1474,-7.2282e-05,-1.439e-05,0.0,0 STARLINK-3458,1 51758U 22016AW  22289.04738233 -.00001439  00000-0 -72282-4 0  9994,2 51758  53.2192 118.5790 0002407  45.9717 314.1474 15.08838878 37557,6917.884,95.438,541.414,538.0840000000002,0.0
51758.0,STARLINK-3458,PAYLOAD,2022-10-16 12:15:55,15.08839595,0.0002362,53.2191,116.4948,56.2802,303.8415,-7.8785e-05,-1.542e-05,0.0,0 STARLINK-3458,1 51758U 22016AW  22289.51106272 -.00001542  00000-0 -78785-4 0  9997,2 51758  53.2191 116.4948 0002362  56.2802 303.8415 15.08839595 37623,6917.882,95.438,541.381,538.113,0.0
51758.0,STARLINK-3458,PAYLOAD,2022-10-16 20:12:51,15.08837041,0.0001965,53.218,115.0096,52.3022,307.8148,7.4488e-05,8.97e-06,0.0,0 STARLINK-3458,1 51758U 22016AW  22289.84225808  .00000897  00000-0  74488-4 0  9996,2 51758  53.2180 115.0096 0001965  52.3022 307.8148 15.08837041 37675,6917.889,95.438,541.114,538.395,0.0
51758.0,STARLINK-3458,PAYLOAD,2022-10-17 12:06:41,15.08844551,0.000198,53.2181,112.0357,53.0126,307.1048,0.00010917,1.4499999999999992e-05,0.0,0 STARLINK-3458,1 51758U 22016AW  22290.50465176  .00001450  00000-0  10917-3 0  9997,2 51758  53.2181 112.0357 0001980  53.0126 307.1048 15.08844551 37770,6917.866,95.437,541.101,538.362,0.0
51758.0,STARLINK-3458,PAYLOAD,2022-10-17 18:28:15,15.08838795,0.0001906,53.2182,110.846,54.4588,305.6582,-2.9091e-05,-7.51e-06,0.0,0 STARLINK-3458,1 51758U 22016AW  22290.76961951 -.00000751  00000-0 -29091-4 0  9996,2 51758  53.2182 110.8460 0001906  54.4588 305.6582 15.08838795 37811,6917.884,95.438,541.068,538.431,0.0
51758.0,STARLINK-3458,PAYLOAD,2022-10-18 05:35:57,15.08839653,0.0001893,53.2181,108.7651,50.7409,309.3751,-9.6182e-05,-1.819e-05,0.0,0 STARLINK-3458,1 51758U 22016AW  22291.23330095 -.00001819  00000-0 -96182-4 0  9999,2 51758  53.2181 108.7651 0001893  50.7409 309.3751 15.08839653 37884,6917.880999999999,95.438,541.056,538.437,0.0
51758.0,STARLINK-3458,PAYLOAD,2022-10-18 18:19:02,15.08835466,0.0001954,53.218,106.3861,49.6391,310.4771,4.6182e-05,4.47e-06,0.0,0 STARLINK-3458,1 51758U 22016AW  22291.76322193  .00000447  00000-0  46182-4 0  9996,2 51758  53.2180 106.3861 0001954  49.6391 310.4771 15.08835466 37967,6917.894,95.438,541.111,538.4069999999998,0.0
51758.0,STARLINK-3458,PAYLOAD,2022-10-18 23:05:11,15.08838122,0.0001962,53.218,105.4939,48.5133,311.6028,1.7119e-05,-1.6e-07,0.0,0 STARLINK-3458,1 51758U 22016AW  22291.96194128 -.00000016  00000-0  17119-4 0  9994,2 51758  53.2180 105.4939 0001962  48.5133 311.6028 15.08838122 37997,6917.886,95.438,541.1080000000002,538.394,0.0
51758.0,STARLINK-3458,PAYLOAD,2022-10-19 21:20:34,15.08843331,0.0001903,53.2179,101.3303,52.4518,307.6647,0.00011594,1.558e-05,0.0,0 STARLINK-3458,1 51758U 22016AW  22292.88929262  .00001558  00000-0  11594-3 0  9992,2 51758  53.2179 101.3303 0001903  52.4518 307.6647 15.08843331 38138,6917.87,95.437,541.052,538.419,0.0
51758.0,STARLINK-3458,PAYLOAD,2022-10-20 18:00:36,15.08839545,0.0001813,53.2172,97.4652,44.8729,315.2409,5.9439e-05,6.58e-06,0.0,0 STARLINK-3458,1 51758U 22016AW  22293.75041776  .00000658  00000-0  59439-4 0  9995,2 51758  53.2172  97.4652 0001813  44.8729 315.2409 15.08839545 38269,6917.882,95.438,541.001,538.493,0.0
51758.0,STARLINK-3458,PAYLOAD,2022-10-21 03:32:54,15.08844682,0.000184,53.2177,95.6819,45.1479,314.9663,6.5015e-05,7.47e-06,0.0,0 STARLINK-3458,1 51758U 22016AW  22294.14785536  .00000747  00000-0  65015-4 0  9994,2 51758  53.2177  95.6819 0001840  45.1479 314.9663 15.08844682 38328,6917.866,95.437,541.004,538.4580000000002,0.0
51758.0,STARLINK-3458,PAYLOAD,2022-10-21 19:26:46,15.08843972,0.0001940999999999,53.2186,92.708,45.4807,314.6343,-0.00012705,-2.31e-05,0.0,0 STARLINK-3458,1 51758U 22016AW  22294.81026150 -.00002310  00000-0 -12705-3 0  9995,2 51758  53.2186  92.7080 0001941  45.4807 314.6343 15.08843972 38420,6917.868,95.437,541.076,538.39,0.0
51758.0,STARLINK-3458,PAYLOAD,2022-10-22 11:20:37,15.08844875,0.0001873,53.2189,89.7343,46.0645,314.0502,2.379e-05,9.1e-07,0.0,0 STARLINK-3458,1 51758U 22016AW  22295.47265781  .00000091  00000-0  23790-4 0  9992,2 51758  53.2189  89.7343 0001873  46.0645 314.0502 15.08844875 38527,6917.865,95.437,541.026,538.435,0.0
51758.0,STARLINK-3458,PAYLOAD,2022-10-22 19:17:33,15.08842064,0.0002124,53.2197,88.2463,44.8429,315.2735,-1.3883e-05,-5.09e-06,0.0,0 STARLINK-3458,1 51758U 22016AW  22295.80386049 -.00000509  00000-0 -13883-4 0  9998,2 51758  53.2197  88.2463 0002124  44.8429 315.2735 15.08842064 38573,6917.874,95.437,541.2080000000002,538.27,0.0
51758.0,STARLINK-3458,PAYLOAD,2022-10-23 03:14:29,15.08841432,0.0001729,53.2194,86.7609,44.2844,315.8286,-7.1515e-06,-4.02e-06,0.0,0 STARLINK-3458,1 51758U 22016AW  22296.13505923 -.00000402  00000-0 -71515-5 0  9998,2 51758  53.2194  86.7609 0001729  44.2844 315.8286 15.08841432 38621,6917.876,95.437,540.937,538.545,0.0
51758.0,STARLINK-3458,PAYLOAD,2022-10-23 11:11:24,15.08844706,0.000175,53.2192,85.2741,44.5503,315.563,2.1896e-05,6e-07,0.0,0 STARLINK-3458,1 51758U 22016AW  22296.46625565  .00000060  00000-0  21896-4 0  9993,2 51758  53.2192  85.2741 0001750  44.5503 315.5630 15.08844706 38671,6917.866,95.437,540.942,538.52,0.0
51758.0,STARLINK-3458,PAYLOAD,2022-10-23 19:08:19,15.08845353,0.0001954,53.2193,83.7871,39.6099,320.5036,0.00012454,1.695e-05,0.0,0 STARLINK-3458,1 51758U 22016AW  22296.79745176  .00001695  00000-0  12454-3 0  9994,2 51758  53.2193  83.7871 0001954  39.6099 320.5036 15.08845353 38721,6917.864000000001,95.437,541.081,538.377,0.0
51758.0,STARLINK-3458,PAYLOAD,2022-10-24 09:26:47,15.08855462,0.0002029,53.2196,81.1102,50.26300000000001,309.8541,3.2128e-05,2.23e-06,0.0,0 STARLINK-3458,1 51758U 22016AW  22297.39360663  .00000223  00000-0  32128-4 0  9992,2 51758  53.2196  81.1102 0002029  50.2630 309.8541 15.08855462 38810,6917.833000000001,95.437,541.102,538.294,0.0
51758.0,STARLINK-3458,PAYLOAD,2022-10-24 18:59:08,15.08831106,0.000207,53.22,79.3267,51.6249,308.4929,-0.00012258,-2.238e-05,0.0,0 STARLINK-3458,1 51758U 22016AW  22297.79106817 -.00002238  00000-0 -12258-3 0  9996,2 51758  53.2200  79.3267 0002070  51.6249 308.4929 15.08831106 38874,6917.908,95.438,541.205,538.341,0.0
51758.0,STARLINK-3458,PAYLOAD,2022-10-25 09:17:36,15.08833985,0.0002026999999999,53.2197,76.6502,49.4459,310.671,-2.2956e-05,-6.53e-06,0.0,0 STARLINK-3458,1 51758U 22016AW  22298.38722536 -.00000653  00000-0 -22956-4 0  9990,2 51758  53.2197  76.6502 0002027  49.4459 310.6710 15.08833985 38961,6917.899,95.438,541.1659999999998,538.362,0.0
